IRIDIUM 150             
1 43257U 18030J   25031.86133545  .00000271  00000+0  89732-4 0  9991
2 43257  86.4013 140.0598 0002365  96.3215 263.8251 14.34213198358328
IRIDIUM 143             
1 43258U 18030K   25031.84230750  .00000531  00000+0  18251-3 0  9992
2 43258  86.4013 140.1406 0002594  96.3467 263.8024 14.34214479358265
IRIDIUM 161             
1 43478U 18047C   25032.18435259  .00000773  00000+0  22390-3 0  9990
2 43478  86.4494 297.8310 0002129  83.2958 276.8485 14.43282347352875
IRIDIUM 152             
1 43479U 18047D   25032.16386836  .00000507  00000+0  17406-3 0  9992
2 43479  86.3966 297.7000 0002151  84.7209 275.4232 14.34214809350684
IRIDIUM 147             
1 43480U 18047E   25031.75159460  .00000381  00000+0  12902-3 0  9995
2 43480  86.3970 297.8678 0001798  78.7576 281.3822 14.34221069350619
IRIDIUM 110             
1 43481U 18047F   25032.17655314  .00000605  00000+0  20882-3 0  9997
2 43481  86.3973 297.7689 0001696  90.1639 269.9751 14.34214937350663
IRIDIUM 162             
1 43482U 18047G   25031.97005618  .00000813  00000+0  23578-3 0  9997
2 43482  86.4495 297.8175 0002116  89.9516 270.1927 14.43268654352838
IRIDIUM 160             
1 43569U 18061A   25031.91308467  .00000516  00000+0  17711-3 0  9993
2 43569  86.3937 266.2332 0001854  85.7092 274.4316 14.34216710341529
